CELTEE 1                
1 41850U 16067C   18103.18026663  .00000662  00000-0  63168-4 0  9995
2 41850  97.9237 190.5372 0009240  30.2356 329.9396 14.96776348 77378
OPTICUBE 04             
1 41851U 16067D   18103.47369434 -.00000048  00000-0  11225-5 0  9991
2 41851  97.9241 190.7666 0009693  29.6052 330.5716 14.96648322 77418
AEROCUBE 8D             
1 41852U 16067E   18103.30200595  .00000350  00000-0  36196-4 0  9994
2 41852  97.9245 190.4438 0010063  28.6938 331.4834 14.96448809 77376
AEROCUBE 8C             
1 41853U 16067F   18103.18088272  .00000743  00000-0  70812-4 0  9996
2 41853  97.9248 190.2883 0010543  31.1898 328.9947 14.96414367 77355
PROMETHEUS 2-1          
1 41854U 16067G   18103.19142671  .00001070  00000-0  99457-4 0  9992
2 41854  97.9258 190.2934 0010976  31.2190 328.9681 14.96499034 77359
PROMETHEUS 2-3          
1 41855U 16067H   18103.46140094  .00000995  00000-0  92862-4 0  9998
2 41855  97.9261 190.5697 0011189  30.5323 329.6547 14.96497795 77395
ITF-2                   
1 41932U 98067KU  18103.81412785  .00033808  00000-0  25278-3 0  9997
2 41932  51.6368 311.6085 0003099 299.1090  60.9598 15.72355910 70625
WASEDA-SAT3             
1 41933U 98067KV  18103.81950926  .00050906  00000-0  31514-3 0  9990
2 41933  51.6361 307.0292 0002744 290.5692  69.5013 15.76544690 70689
AOBA-VELOX 3            
1 41935U 98067KX  18103.58340636  .00042554  00000-0  28377-3 0  9990
2 41935  51.6362 310.0235 0002584 292.9145  67.1582 15.74920847 70724
INS-1B                  
1 41954U 17008G   18103.79790132  .00001866  00000-0  82784-4 0  9994
2 41954  97.4523 168.2897 0008634 209.9842 150.0902 15.22816601 64202
BGUSAT                  
1 41999U 17008BD  18103.83554715  .00002938  00000-0  12319-3 0  9990
2 41999  97.4565 169.1973 0007318 228.4150 131.6460 15.24289686 63626
DIDO-2                  
1 42000U 17008BE  18103.48566794  .00001255  00000-0  56296-4 0  9999
2 42000  97.4541 168.3756 0007373 232.3946 127.6622 15.23050437 63558
PEASSS                  
1 42015U 17008BV  18103.56362942  .00001542  00000-0  66932-4 0  9990
2 42015  97.4536 168.8343 0005152 238.5852 121.4881 15.23833898 64079
AL-FARABI 1             
1 42016U 17008BW  18103.44157243  .00002293  00000-0  97053-4 0  9996
2 42016  97.4544 168.8657 0005031 238.5606 121.5139 15.24202860 64189
NAYIF-1 (EO-88)         
1 42017U 17008BX  18103.83070881  .00002083  00000-0  88372-4 0  9993
2 42017  97.4541 169.2586 0005030 237.1973 122.8780 15.24226419 64265
HAVELSAT                
1 42700U 98067LH  18103.84075622  .00029657  00000-0  26872-3 0  9997
2 42700  51.6368 323.0355 0003104  13.9943 346.1139 15.67782357 51916
SGSAT                   
1 42703U 98067LL  18103.84071103  .00292688  44039-4  79726-3 0  9996
2 42703  51.6290 307.0472 0006919 263.9430  96.0789 15.93605232 52031
CXBN-2                  
1 42704U 98067LM  18103.84530481  .00028275  00000-0  26035-3 0  9996
2 42704  51.6371 323.8272 0001240 261.5731  98.5125 15.67414991 51824
ICECUBE                 
1 42705U 98067LN  18103.84111734  .00051911  00000-0  37700-3 0  9997
2 42705  51.6422 319.3566 0002112 287.4190  72.6577 15.72846245 51947
PHOENIX                 
1 42706U 98067LP  18103.86113354  .00025059  00000-0  23932-3 0  9996
2 42706  51.6368 323.9273 0000475 260.6711  99.4231 15.66579657 51818
X-CUBESAT               
1 42707U 98067LQ  18103.83933023  .00031019  00000-0  27704-3 0  9991
2 42707  51.6340 322.9820 0000699 241.2355 118.8572 15.68115209 51818
QBEE50-LTU-OC           
1 42708U 98067LR  18103.81929234  .00028534  00000-0  26159-3 0  9990
2 42708  51.6370 323.6314 0000584 249.1056 110.9878 15.67517707 51760
ALTAIR PATHFINDER       
1 42711U 98067LS  18103.89506480  .00015295  00000-0  17285-3 0  9996
2 42711  51.6374 328.6552 0003000 294.1899  65.8781 15.62674650 51417
SHARC                   
1 42712U 98067LT  18103.87309819  .00022468  00000-0  26209-3 0  9998
2 42712  51.6393 330.0529 0001501 300.8763  59.2083 15.61550245 51637
ZA-AEROSAT              
1 42713U 98067LU  18103.83787893  .00022276  00000-0  22379-3 0  9998
2 42713  51.6361 326.0123 0001539 266.1030  93.9789 15.65385808 51442
LINK                    
1 42714U 98067LV  18103.86314180  .00047567  00000-0  34308-3 0  9992
2 42714  51.6323 319.3444 0002173 251.4133 108.6629 15.73045250 51640
CSUNSAT 1               
1 42715U 98067LW  18103.87700660  .00021892  00000-0  21671-3 0  9998
2 42715  51.6373 325.5384 0003109 278.1142  81.9501 15.65767789 51454
SPACECUBE               
1 42717U 98067LY  18103.84372533  .00029597  00000-0  27171-3 0  9992
2 42717  51.6352 323.7887 0001848  18.2228 341.8834 15.67462604 50846
HOOPOE                  
1 42718U 98067LZ  18103.83818028  .00035898  00000-0  30601-3 0  9999
2 42718  51.6362 322.2549 0001454   9.0783 351.0240 15.69180725 50863
CHALLENGER              
1 42721U 98067MA  18103.83615135  .00073007  00000-0  45264-3 0  9992
2 42721  51.6312 316.9074 0002757 317.6294  42.4492 15.76363650 50630
NJUST-1                 
1 42722U 98067MB  18103.86284731  .00019564  00000-0  20345-3 0  9991
2 42722  51.6372 326.9418 0004698 352.9849   7.1080 15.64596933 50500
UNSW-ECO                
1 42723U 98067MC  18103.86098682  .00035430  00000-0  29745-3 0  9993
2 42723  51.6378 322.4282 0003424 344.7121  15.3773 15.69553568 50541
LILACSAT-1              
1 42725U 98067ME  18103.86482719  .00025159  00000-0  24209-3 0  9990
2 42725  51.6368 325.4525 0003480 353.2336   6.8612 15.66385551 50426
NSIGHT-1                
1 42726U 98067MF  18103.84867656  .00007904  00000-0  10009-3 0  9997
2 42726  51.6397 331.3840 0004908 359.6862   0.4127 15.60516358 50353
SNUSAT-1                
1 42727U 98067MG  18103.87238916  .00024489  00000-0  23673-3 0  9990
2 42727  51.6352 325.4636 0005240 308.4376  51.6149 15.66279300 50399
I-INSPIRE II            
1 42731U 98067ML  18103.87535813  .00031868  00000-0  26299-3 0  9997
2 42731  51.6354 321.7206 0004446 287.0574  72.9936 15.70020349 50333
POLYITAN-2-SAU          
1 42732U 98067MM  18103.83683459  .00030535  00000-0  27457-3 0  9991
2 42732  51.6360 323.7348 0004748 288.3102  71.7378 15.67947531 50307
SNUSAT-1B               
1 42733U 98067MN  18103.86974281  .00026365  00000-0  24857-3 0  9998
2 42733  51.6364 324.7152 0004872 293.7142  66.3343 15.66859227 50291
EXALTA-1                
1 42734U 98067MP  18103.87677553  .00039366  00000-0  31948-3 0  9996
2 42734  51.6341 321.7179 0004872 316.5427  43.5186 15.70314675 50282
BEEAGLESAT              
1 42736U 98067MR  18103.88359848  .00022411  00000-0  22029-3 0  9996
2 42736  51.6361 325.5563 0004780 347.3569  12.7306 15.65922622 50342
ATLANTIS                
1 42737U 98067MS  18087.11387049  .13966215  12356-4  93055-3 0  9999
2 42737  51.6095  27.8979 0006293 234.7874 125.2564 16.40626348 47903
UCLSAT                  
1 42765U 17036A   18103.37439947  .00001734  00000-0  79679-4 0  9997
2 42765  97.4078 164.2502 0010456 308.8463  51.1839 15.21672290 45448
LITUANICASAT-2          
1 42768U 17036D   18103.47479888  .00002820  00000-0  12972-3 0  9998
2 42768  97.4092 163.9884 0014171 295.0859  64.8905 15.21085534 44724
AALTO-1                 
1 42775U 17036L   18103.28419881  .00001169  00000-0  56372-4 0  9990
2 42775  97.4072 163.7598 0012678 294.5360  65.4553 15.20625853 44630
URSA MAIOR              
1 42776U 17036M   18103.20810405  .00001217  00000-0  58419-4 0  9998
2 42776  97.4079 163.7233 0012533 295.1131  64.8803 15.20695420 44624
COMPASS 2               
1 42777U 17036N   18103.23657465  .00002452  00000-0  11195-3 0  9998
2 42777  97.4097 164.0373 0011424 298.9120  61.0969 15.21497614 44630
DIAMOND RED             
1 42783U 17036U   18103.22561234  .00001426  00000-0  66763-4 0  9994
2 42783  97.4079 163.9962 0011037 309.0477  50.9776 15.21306924 44634
PEGASUS                 
1 42784U 17036V   18103.79850819  .00001527  00000-0  70903-4 0  9990
2 42784  97.4080 164.6093 0010958 306.9644  53.0588 15.21491821 44729
DIAMOND GREEN           
1 42785U 17036W   18103.22461535  .00001271  00000-0  59856-4 0  9992
2 42785  97.4081 164.0063 0010946 309.8020  50.2251 15.21310298 44701
DIAMOND BLUE            
1 42786U 17036X   18103.22375620  .00001355  00000-0  63579-4 0  9992
2 42786  97.4081 164.0059 0010806 310.0209  50.0078 15.21311020 44704
NUDTSAT                 
1 42787U 17036Y   18103.41085949  .00002520  00000-0  11333-3 0  9991
2 42787  97.4087 164.3708 0010458 308.1593  51.8700 15.21990669 44514
SUCHAI                  
1 42788U 17036Z   18103.10895006  .00001867  00000-0  85417-4 0  9999
2 42788  97.4082 164.0028 0010606 309.7635  50.2666 15.21728959 44695
SKCUBE                  
1 42789U 17036AA  18103.30431825  .00001749  00000-0  80258-4 0  9994
2 42789  97.4079 164.1946 0010430 309.0521  50.9786 15.21705708 44646
VZLUSAT-1               
1 42790U 17036AB  18103.53265564  .00002323  00000-0  10466-3 0  9998
2 42790  97.4084 164.4990 0010013 308.4771  51.5566 15.22018130 44687
ROBUSTA-1B              
1 42792U 17036AD  18103.41043000  .00001743  00000-0  79692-4 0  9998
2 42792  97.4078 164.3490 0009994 310.0222  50.0136 15.21844823 44673
CICERO 6                
1 42793U 17036AE  18103.72801100  .00001097  00000-0  51431-4 0  9999
2 42793  97.4071 164.6761 0009170 310.6408  49.4030 15.21745970 44790
D-SAT                   
1 42794U 17036AF  18103.20848589  .00000374  00000-0  37855-4 0  9996
2 42794  97.5991 160.2965 0128298 137.9740 223.1408 14.90822622 44046
TOKI                    
1 42820U 98067MU  18103.08807595  .00025710  00000-0  26118-3 0  9997
2 42820  51.6367 331.4989 0002285 257.8473 102.2266 15.65011396 43650
MAZAALAI (NUMSAT-1)     
1 42822U 98067MW  18103.55834105  .00022497  00000-0  23113-3 0  9999
2 42822  51.6365 329.3925 0002200 263.7235  96.3510 15.64811912 43729
